BEIJING 1               
1 28890U 05043A   24087.52558839  .00000922  00000+0  19243-3 0  9999
2 28890  98.1865 211.0431 0013895 304.6021  55.3869 14.62202255981968
HJ-1A                   
1 33320U 08041A   24087.54403353  .00002796  00000+0  37981-3 0  9996
2 33320  97.6350  98.6055 0018761 278.3451  81.5635 14.79469548838283
HJ-1B                   
1 33321U 08041B   24087.56817439  .00001998  00000+0  26827-3 0  9993
2 33321  97.6313 103.1639 0037550 324.7718  35.1013 14.79910755838301
YAOGAN 4                
1 33446U 08061A   24087.53320298  .00002191  00000+0  30038-3 0  9997
2 33446  97.8752  21.0145 0014904 185.3690 174.7364 14.79362499825486
DEIMOS-1                
1 35681U 09041A   24087.48833410  .00001649  00000+0  26324-3 0  9998
2 35681  97.6796 273.8018 0000515   3.8275 356.2938 14.73110521787287
UK-DMC 2                
1 35683U 09041C   24087.49315863  .00001996  00000+0  31812-3 0  9991
2 35683  97.7680 238.5760 0001254  82.7547 277.3804 14.73003098786984
RISAT 1                 
1 38248U 12017A   24087.54329566  .00012438  00000+0  55056-3 0  9998
2 38248  97.5297 104.7648 0004099 144.1147 216.0365 15.21795049657172
DMC3-FM1                
1 40715U 15032A   24087.55425834  .00001565  00000+0  19678-3 0  9995
2 40715  97.7624 328.8203 0005362 185.7923 174.3230 14.83438395469479
DMC3-FM2                
1 40716U 15032B   24087.57738512  .00001606  00000+0  20176-3 0  9999
2 40716  97.7675 329.8582 0007135 194.4407 165.6604 14.83441676469475
DMC3-FM3                
1 40717U 15032C   24087.53214695  .00001287  00000+0  16304-3 0  9990
2 40717  97.7721 331.0464 0008679 193.0263 167.0729 14.83418824469474
